SAUDISAT 1C (SO-50)     
1 27607U 02058C   26188.11499616  .00000749  00000+0  10582-3 0  9997
2 27607  64.5520  67.3282 0074752 258.7570 100.5128 14.83088031267416
SAUDISAT 2              
1 28371U 04025F   26187.94878642  .00000213  00000+0  58559-4 0  9995
2 28371  98.5514 188.4419 0023655 234.4243 125.4749 14.56695117168623
SAUDISAT 3              
1 31118U 07012B   26187.43524959  .00000272  00000+0  52008-4 0  9998
2 31118  98.1463 137.8494 0015011 161.2361 198.9401 14.71436940 30577
PISAT                   
1 41784U 16059B   26187.96544854  .00000854  00000+0  15272-3 0  9990
2 41784  97.8184 187.5687 0029984 140.0298 220.3123 14.69019349522649
FLYING LAPTOP           
1 42831U 17042G   26188.18197084  .00001740  00000+0  13928-3 0  9992
2 42831  97.4782 342.9572 0019945  57.8207 302.4948 15.01275179489454
SALSAT                  
1 46495U 20068K   26187.96288697  .00005977  00000+0  20799-3 0  9990
2 46495  97.8858 192.2352 0008388 224.1445 135.9125 15.30092809318384
