OBJECT_NAME,OBJECT_ID,EPOCH,MEAN_MOTION,ECCENTRICITY,INCLINATION,RA_OF_ASC_NODE,ARG_OF_PERICENTER,MEAN_ANOMALY,EPHEMERIS_TYPE,CLASSIFICATION_TYPE,NORAD_CAT_ID,ELEMENT_SET_NO,REV_AT_EPOCH,BSTAR,MEAN_MOTION_DOT,MEAN_MOTION_DDOT
SAUDISAT 1C (SO-50),2002-058C,2026-07-07T02:45:35.668224,14.83088031,.0074752,64.5520,67.3282,258.7570,100.5128,0,U,27607,999,26741,.10582E-3,.749E-5,0
SAUDISAT 2,2004-025F,2026-07-06T22:46:15.146688,14.56695117,.0023655,98.5514,188.4419,234.4243,125.4749,0,U,28371,999,16862,.58559E-4,.213E-5,0
SAUDISAT 3,2007-012B,2026-07-06T10:26:45.564576,14.71436940,.0015011,98.1463,137.8494,161.2361,198.9401,0,U,31118,999,3057,.52008E-4,.272E-5,0
PISAT,2016-059B,2026-07-06T23:10:14.753856,14.69019349,.0029984,97.8184,187.5687,140.0298,220.3123,0,U,41784,999,52264,.15272E-3,.854E-5,0
FLYING LAPTOP,2017-042G,2026-07-07T04:22:02.280576,15.01275179,.0019945,97.4782,342.9572,57.8207,302.4948,0,U,42831,999,48945,.13928E-3,.174E-4,0
SALSAT,2020-068K,2026-07-06T23:06:33.434208,15.30092809,.0008388,97.8858,192.2352,224.1445,135.9125,0,U,46495,999,31838,.20799E-3,.5977E-4,0
